[{"OBJECT_NAME":"COMSATBW-1","OBJECT_ID":"2009-054B","EPOCH":"2026-03-05T10:52:29.635392","MEAN_MOTION":1.00276861,"ECCENTRICITY":0.0003695,"INCLINATION":0.0241,"RA_OF_ASC_NODE":98.3886,"ARG_OF_PERICENTER":265.9211,"MEAN_ANOMALY":25.0259,"EPHEMERIS_TYPE":0,"CLASSIFICATION_TYPE":"U","NORAD_CAT_ID":35943,"ELEMENT_SET_NO":999,"REV_AT_EPOCH":6026,"BSTAR":0,"MEAN_MOTION_DOT":1.6e-7,"MEAN_MOTION_DDOT":0},{"OBJECT_NAME":"NSS-12","OBJECT_ID":"2009-058A","EPOCH":"2026-03-05T22:52:51.843648","MEAN_MOTION":1.00273203,"ECCENTRICITY":0.00049284,"INCLINATION":0.0059,"RA_OF_ASC_NODE":271.0884,"ARG_OF_PERICENTER":59.5811,"MEAN_ANOMALY":233.2158,"EPHEMERIS_TYPE":0,"CLASSIFICATION_TYPE":"U","NORAD_CAT_ID":36032,"ELEMENT_SET_NO":999,"REV_AT_EPOCH":5988,"BSTAR":0,"MEAN_MOTION_DOT":6.5e-7,"MEAN_MOTION_DDOT":0},{"OBJECT_NAME":"THOR 6","OBJECT_ID":"2009-058B","EPOCH":"2026-03-06T05:23:46.913856","MEAN_MOTION":1.00272679,"ECCENTRICITY":0.00019987,"INCLINATION":0.0264,"RA_OF_ASC_NODE":236.594,"ARG_OF_PERICENTER":130.9219,"MEAN_ANOMALY":236.5283,"EPHEMERIS_TYPE":0,"CLASSIFICATION_TYPE":"U","NORAD_CAT_ID":36033,"ELEMENT_SET_NO":999,"REV_AT_EPOCH":5997,"BSTAR":0,"MEAN_MOTION_DOT":-1.5e-7,"MEAN_MOTION_DDOT":0},{"OBJECT_NAME":"INTELSAT 14 (IS-14)","OBJECT_ID":"2009-064A","EPOCH":"2026-03-05T20:37:47.361216","MEAN_MOTION":1.00274449,"ECCENTRICITY":0.00023742,"INCLINATION":0.0248,"RA_OF_ASC_NODE":92.5236,"ARG_OF_PERICENTER":252.0947,"MEAN_ANOMALY":83.4189,"EPHEMERIS_TYPE":0,"CLASSIFICATION_TYPE":"U","NORAD_CAT_ID":36097,"ELEMENT_SET_NO":999,"REV_AT_EPOCH":5956,"BSTAR":0,"MEAN_MOTION_DOT":-2.8e-6,"MEAN_MOTION_DDOT":0},{"OBJECT_NAME":"EUTELSAT 36B","OBJECT_ID":"2009-065A","EPOCH":"2026-03-06T05:50:38.914944","MEAN_MOTION":1.00272683,"ECCENTRICITY":0.00058654,"INCLINATION":0.2315,"RA_OF_ASC_NODE":77.7076,"ARG_OF_PERICENTER":271.0027,"MEAN_ANOMALY":313.3857,"EPHEMERIS_TYPE":0,"CLASSIFICATION_TYPE":"U","NORAD_CAT_ID":36101,"ELEMENT_SET_NO":999,"REV_AT_EPOCH":5967,"BSTAR":0,"MEAN_MOTION_DOT":1.07e-6,"MEAN_MOTION_DDOT":0},{"OBJECT_NAME":"INTELSAT 15 (IS-15)","OBJECT_ID":"2009-067A","EPOCH":"2026-03-06T02:22:56.755200","MEAN_MOTION":1.0027009,"ECCENTRICITY":0.00023733,"INCLINATION":0.0187,"RA_OF_ASC_NODE":168.6392,"ARG_OF_PERICENTER":190.7694,"MEAN_ANOMALY":285.31,"EPHEMERIS_TYPE":0,"CLASSIFICATION_TYPE":"U","NORAD_CAT_ID":36106,"ELEMENT_SET_NO":999,"REV_AT_EPOCH":4019,"BSTAR":0,"MEAN_MOTION_DOT":0,"MEAN_MOTION_DDOT":0},{"OBJECT_NAME":"WGS F3 (USA 211)","OBJECT_ID":"2009-068A","EPOCH":"2026-03-06T06:07:30.493920","MEAN_MOTION":1.00963381,"ECCENTRICITY":0.00023084,"INCLINATION":0.3585,"RA_OF_ASC_NODE":86.2843,"ARG_OF_PERICENTER":314.0622,"MEAN_ANOMALY":57.7232,"EPHEMERIS_TYPE":0,"CLASSIFICATION_TYPE":"U","NORAD_CAT_ID":36108,"ELEMENT_SET_NO":999,"REV_AT_EPOCH":4556,"BSTAR":0,"MEAN_MOTION_DOT":1.01e-6,"MEAN_MOTION_DDOT":0},{"OBJECT_NAME":"DIRECTV 12","OBJECT_ID":"2009-075A","EPOCH":"2026-03-06T04:24:38.565216","MEAN_MOTION":1.0027227,"ECCENTRICITY":3.619e-5,"INCLINATION":0.0195,"RA_OF_ASC_NODE":337.1647,"ARG_OF_PERICENTER":42.214,"MEAN_ANOMALY":107.97,"EPHEMERIS_TYPE":0,"CLASSIFICATION_TYPE":"U","NORAD_CAT_ID":36131,"ELEMENT_SET_NO":999,"REV_AT_EPOCH":4552,"BSTAR":0,"MEAN_MOTION_DOT":-1.09e-6,"MEAN_MOTION_DDOT":0},{"OBJECT_NAME":"BEIDOU-2 G1","OBJECT_ID":"2010-001A","EPOCH":"2026-03-06T07:46:48.199872","MEAN_MOTION":1.00270553,"ECCENTRICITY":0.00048143,"INCLINATION":4.0525,"RA_OF_ASC_NODE":60.6844,"ARG_OF_PERICENTER":280.0905,"MEAN_ANOMALY":80.4333,"EPHEMERIS_TYPE":0,"CLASSIFICATION_TYPE":"U","NORAD_CAT_ID":36287,"ELEMENT_SET_NO":999,"REV_AT_EPOCH":5913,"BSTAR":0,"MEAN_MOTION_DOT":-2.84e-6,"MEAN_MOTION_DDOT":0},{"OBJECT_NAME":"SDO","OBJECT_ID":"2010-005A","EPOCH":"2026-03-06T01:29:46.853376","MEAN_MOTION":1.00275562,"ECCENTRICITY":2.534e-5,"INCLINATION":34.434,"RA_OF_ASC_NODE":87.903,"ARG_OF_PERICENTER":56.8087,"MEAN_ANOMALY":299.6214,"EPHEMERIS_TYPE":0,"CLASSIFICATION_TYPE":"U","NORAD_CAT_ID":36395,"ELEMENT_SET_NO":999,"REV_AT_EPOCH":5902,"BSTAR":0,"MEAN_MOTION_DOT":-6.5e-7,"MEAN_MOTION_DDOT":0},{"OBJECT_NAME":"INTELSAT 16 (IS-16)","OBJECT_ID":"2010-006A","EPOCH":"2026-03-06T04:08:38.676768","MEAN_MOTION":1.00272464,"ECCENTRICITY":0.00020188,"INCLINATION":0.0204,"RA_OF_ASC_NODE":112.5804,"ARG_OF_PERICENTER":240.2762,"MEAN_ANOMALY":156.9897,"EPHEMERIS_TYPE":0,"CLASSIFICATION_TYPE":"U","NORAD_CAT_ID":36397,"ELEMENT_SET_NO":999,"REV_AT_EPOCH":5862,"BSTAR":0,"MEAN_MOTION_DOT":-2.5e-6,"MEAN_MOTION_DDOT":0},{"OBJECT_NAME":"EWS-G2 (GOES 15)","OBJECT_ID":"2010-008A","EPOCH":"2026-03-06T03:59:25.003968","MEAN_MOTION":1.00269713,"ECCENTRICITY":0.00020058,"INCLINATION":1.0131,"RA_OF_ASC_NODE":85.1126,"ARG_OF_PERICENTER":18.4418,"MEAN_ANOMALY":183.6554,"EPHEMERIS_TYPE":0,"CLASSIFICATION_TYPE":"U","NORAD_CAT_ID":36411,"ELEMENT_SET_NO":999,"REV_AT_EPOCH":5860,"BSTAR":0,"MEAN_MOTION_DOT":1.6e-7,"MEAN_MOTION_DDOT":0},{"OBJECT_NAME":"ECHOSTAR 14","OBJECT_ID":"2010-010A","EPOCH":"2026-03-06T03:26:38.559840","MEAN_MOTION":1.00272644,"ECCENTRICITY":0.00018471,"INCLINATION":0.0157,"RA_OF_ASC_NODE":171.6981,"ARG_OF_PERICENTER":179.646,"MEAN_ANOMALY":105.2742,"EPHEMERIS_TYPE":0,"CLASSIFICATION_TYPE":"U","NORAD_CAT_ID":36499,"ELEMENT_SET_NO":999,"REV_AT_EPOCH":4551,"BSTAR":0,"MEAN_MOTION_DOT":-5.0e-8,"MEAN_MOTION_DDOT":0},{"OBJECT_NAME":"SES-1","OBJECT_ID":"2010-016A","EPOCH":"2026-03-06T04:24:38.565216","MEAN_MOTION":1.00272571,"ECCENTRICITY":0.000249,"INCLINATION":0.0493,"RA_OF_ASC_NODE":296.2372,"ARG_OF_PERICENTER":43.0385,"MEAN_ANOMALY":149.7884,"EPHEMERIS_TYPE":0,"CLASSIFICATION_TYPE":"U","NORAD_CAT_ID":36516,"ELEMENT_SET_NO":999,"REV_AT_EPOCH":5800,"BSTAR":0,"MEAN_MOTION_DOT":-1.2e-6,"MEAN_MOTION_DDOT":0},{"OBJECT_NAME":"ASTRA 3B","OBJECT_ID":"2010-021A","EPOCH":"2026-03-06T05:30:46.244160","MEAN_MOTION":1.00272558,"ECCENTRICITY":0.00031191,"INCLINATION":1.2021,"RA_OF_ASC_NODE":84.899,"ARG_OF_PERICENTER":281.5715,"MEAN_ANOMALY":263.6647,"EPHEMERIS_TYPE":0,"CLASSIFICATION_TYPE":"U","NORAD_CAT_ID":36581,"ELEMENT_SET_NO":999,"REV_AT_EPOCH":5783,"BSTAR":0,"MEAN_MOTION_DOT":1.32e-6,"MEAN_MOTION_DDOT":0},{"OBJECT_NAME":"COMSATBW-2","OBJECT_ID":"2010-021B","EPOCH":"2026-03-06T05:27:46.531296","MEAN_MOTION":1.00273765,"ECCENTRICITY":0.00026574,"INCLINATION":0.027,"RA_OF_ASC_NODE":185.1453,"ARG_OF_PERICENTER":176.4509,"MEAN_ANOMALY":257.4673,"EPHEMERIS_TYPE":0,"CLASSIFICATION_TYPE":"U","NORAD_CAT_ID":36582,"ELEMENT_SET_NO":999,"REV_AT_EPOCH":5792,"BSTAR":0,"MEAN_MOTION_DOT":8.3e-7,"MEAN_MOTION_DDOT":0},{"OBJECT_NAME":"BEIDOU-2 G3","OBJECT_ID":"2010-024A","EPOCH":"2026-03-06T02:21:19.410912","MEAN_MOTION":1.00270085,"ECCENTRICITY":0.00080955,"INCLINATION":4.2714,"RA_OF_ASC_NODE":61.9249,"ARG_OF_PERICENTER":321.4779,"MEAN_ANOMALY":255.2848,"EPHEMERIS_TYPE":0,"CLASSIFICATION_TYPE":"U","NORAD_CAT_ID":36590,"ELEMENT_SET_NO":999,"REV_AT_EPOCH":5773,"BSTAR":0,"MEAN_MOTION_DOT":-1.38e-6,"MEAN_MOTION_DDOT":0}]
