COMSATBW-1              
1 35943U 09054B   26064.45312078  .00000016  00000+0  00000+0 0  9995
2 35943   0.0241  98.3886 0003695 265.9211  25.0259  1.00276861 60262
NSS-12                  
1 36032U 09058A   26064.95337782  .00000065  00000+0  00000+0 0  9997
2 36032   0.0059 271.0884 0004928  59.5811 233.2158  1.00273203 59884
THOR 6                  
1 36033U 09058B   26065.22484854 -.00000015  00000+0  00000+0 0  9998
2 36033   0.0264 236.5940 0001998 130.9219 236.5283  1.00272679 59973
INTELSAT 14 (IS-14)     
1 36097U 09064A   26064.85957594 -.00000280  00000+0  00000+0 0  9993
2 36097   0.0248  92.5236 0002374 252.0947  83.4189  1.00274449 59562
EUTELSAT 36B            
1 36101U 09065A   26065.24350596  .00000107  00000+0  00000+0 0  9990
2 36101   0.2315  77.7076 0005865 271.0027 313.3857  1.00272683 59677
INTELSAT 15 (IS-15)     
1 36106U 09067A   26065.09926800  .00000000  00000+0  00000+0 0  9999
2 36106   0.0187 168.6392 0002373 190.7694 285.3100  1.00270090 40192
WGS F3 (USA 211)        
1 36108U 09068A   26065.25521405  .00000101  00000+0  00000+0 0  9994
2 36108   0.3585  86.2843 0002308 314.0622  57.7232  1.00963381 45560
DIRECTV 12              
1 36131U 09075A   26065.18377969 -.00000109  00000+0  00000+0 0  9993
2 36131   0.0195 337.1647 0000361  42.2140 107.9700  1.00272270 45526
BEIDOU-2 G1             
1 36287U 10001A   26065.32416898 -.00000284  00000+0  00000+0 0  9991
2 36287   4.0525  60.6844 0004814 280.0905  80.4333  1.00270553 59135
SDO                     
1 36395U 10005A   26065.06234784 -.00000065  00000+0  00000+0 0  9995
2 36395  34.4340  87.9030 0000253  56.8087 299.6214  1.00275562 59024
INTELSAT 16 (IS-16)     
1 36397U 10006A   26065.17266987 -.00000250  00000+0  00000+0 0  9996
2 36397   0.0204 112.5804 0002018 240.2762 156.9897  1.00272464 58623
EWS-G2 (GOES 15)        
1 36411U 10008A   26065.16626162  .00000016  00000+0  00000+0 0  9998
2 36411   1.0131  85.1126 0002005  18.4418 183.6554  1.00269713 58609
ECHOSTAR 14             
1 36499U 10010A   26065.14350185 -.00000005  00000+0  00000+0 0  9993
2 36499   0.0157 171.6981 0001847 179.6460 105.2742  1.00272644 45514
SES-1                   
1 36516U 10016A   26065.18377969 -.00000120  00000+0  00000+0 0  9990
2 36516   0.0493 296.2372 0002490  43.0385 149.7884  1.00272571 58007
ASTRA 3B                
1 36581U 10021A   26065.22970190  .00000132  00000+0  00000+0 0  9990
2 36581   1.2021  84.8990 0003119 281.5715 263.6647  1.00272558 57839
COMSATBW-2              
1 36582U 10021B   26065.22762189  .00000083  00000+0  00000+0 0  9993
2 36582   0.0270 185.1453 0002657 176.4509 257.4673  1.00273765 57922
BEIDOU-2 G3             
1 36590U 10024A   26065.09814133 -.00000138  00000+0  00000+0 0  9999
2 36590   4.2714  61.9249 0008095 321.4779 255.2848  1.00270085 57738
